{
  "type": "FeatureCollection",
  "features": [
    {
      "type": "Feature",
      "properties": {
        "norad_id": 30628,
        "name": "FENGYUN 1C DEB",
        "group": "fengyun-1c-debris",
        "lat": 62.86962804807442,
        "lon": -125.30923602739577,
        "alt_km": 673.8728265102445,
        "timestamp": "2025-12-04T19:33:59.880721+00:00",
        "meta_object_name": "FENGYUN 1C DEB",
        "meta_object_id": "1999-025ANK",
        "meta_epoch": "2025-12-04T01:17:13.560288",
        "meta_mean_motion": 14.68572627,
        "meta_eccentricity": 0.00237549,
        "meta_inclination": 99.3395,
        "meta_ra_of_asc_node": 252.5566,
        "meta_arg_of_pericenter": 275.8858,
        "meta_mean_anomaly": 83.9636,
        "meta_ephemeris_type": 0,
        "meta_classification_type": "U",
        "meta_norad_cat_id": 30628,
        "meta_element_set_no": 999,
        "meta_rev_at_epoch": 98343,
        "meta_bstar": 0.0068855023,
        "meta_mean_motion_dot": 0.00040319,
        "meta_mean_motion_ddot": 0,
        "tle_line1": "1 30628U 99025ANK 25338.05362917  .00040319  00000+0  68855-2 0  9998",
        "tle_line2": "2 30628  99.3395 252.5566 0023754 275.8858  83.9636 14.68572627983434"
      },
      "geometry": {
        "type": "Point",
        "coordinates": [
          -125.30923602739577,
          62.86962804807442
        ]
      }
    },
    {
      "type": "Feature",
      "properties": {
        "norad_id": 30629,
        "name": "FENGYUN 1C DEB",
        "group": "fengyun-1c-debris",
        "lat": 53.578840247204724,
        "lon": -93.39064371833778,
        "alt_km": 690.633626277724,
        "timestamp": "2025-12-04T19:33:59.880730+00:00",
        "meta_object_name": "FENGYUN 1C DEB",
        "meta_object_id": "1999-025ANL",
        "meta_epoch": "2025-12-04T06:04:55.965792",
        "meta_mean_motion": 14.59192082,
        "meta_eccentricity": 0.00076987,
        "meta_inclination": 99.2521,
        "meta_ra_of_asc_node": 73.2205,
        "meta_arg_of_pericenter": 217.6488,
        "meta_mean_anomaly": 197.9615,
        "meta_ephemeris_type": 0,
        "meta_classification_type": "U",
        "meta_norad_cat_id": 30629,
        "meta_element_set_no": 999,
        "meta_rev_at_epoch": 97766,
        "meta_bstar": 0.0074925551,
        "meta_mean_motion_dot": 0.00035471,
        "meta_mean_motion_ddot": 0,
        "tle_line1": "1 30629U 99025ANL 25338.25342553  .00035471  00000+0  74926-2 0  9994",
        "tle_line2": "2 30629  99.2521  73.2205 0007698 217.6488 197.9615 14.59192082977669"
      },
      "geometry": {
        "type": "Point",
        "coordinates": [
          -93.39064371833778,
          53.578840247204724
        ]
      }
    },
    {
      "type": "Feature",
      "properties": {
        "norad_id": 30630,
        "name": "FENGYUN 1C DEB",
        "group": "fengyun-1c-debris",
        "lat": 58.10317051660032,
        "lon": 136.4839181781716,
        "alt_km": 796.941725390463,
        "timestamp": "2025-12-04T19:33:59.880739+00:00",
        "meta_object_name": "FENGYUN 1C DEB",
        "meta_object_id": "1999-025ANM",
        "meta_epoch": "2025-12-02T10:10:40.778112",
        "meta_mean_motion": 14.22312353,
        "meta_eccentricity": 0.00260324,
        "meta_inclination": 99.1724,
        "meta_ra_of_asc_node": 149.0444,
        "meta_arg_of_pericenter": 103.5434,
        "meta_mean_anomaly": 319.0893,
        "meta_ephemeris_type": 0,
        "meta_classification_type": "U",
        "meta_norad_cat_id": 30630,
        "meta_element_set_no": 999,
        "meta_rev_at_epoch": 97066,
        "meta_bstar": 0.0011446501,
        "meta_mean_motion_dot": 2.506e-05,
        "meta_mean_motion_ddot": 0,
        "tle_line1": "1 30630U 99025ANM 25336.42408308  .00002506  00000+0  11447-2 0  9996",
        "tle_line2": "2 30630  99.1724 149.0444 0026032 103.5434 319.0893 14.22312353970662"
      },
      "geometry": {
        "type": "Point",
        "coordinates": [
          136.4839181781716,
          58.10317051660032
        ]
      }
    },
    {
      "type": "Feature",
      "properties": {
        "norad_id": 30632,
        "name": "FENGYUN 1C DEB",
        "group": "fengyun-1c-debris",
        "lat": -6.263931954593264,
        "lon": -71.35135634470242,
        "alt_km": 678.5068281497834,
        "timestamp": "2025-12-04T19:33:59.880748+00:00",
        "meta_object_name": "FENGYUN 1C DEB",
        "meta_object_id": "1999-025ANP",
        "meta_epoch": "2025-12-04T07:28:54.755904",
        "meta_mean_motion": 14.62252326,
        "meta_eccentricity": 0.00156641,
        "meta_inclination": 98.8231,
        "meta_ra_of_asc_node": 109.0881,
        "meta_arg_of_pericenter": 194.0325,
        "meta_mean_anomaly": 223.0656,
        "meta_ephemeris_type": 0,
        "meta_classification_type": "U",
        "meta_norad_cat_id": 30632,
        "meta_element_set_no": 999,
        "meta_rev_at_epoch": 97568,
        "meta_bstar": 0.0094555913,
        "meta_mean_motion_dot": 0.00048039,
        "meta_mean_motion_ddot": 0,
        "tle_line1": "1 30632U 99025ANP 25338.31174486  .00048039  00000+0  94556-2 0  9998",
        "tle_line2": "2 30632  98.8231 109.0881 0015664 194.0325 223.0656 14.62252326975682"
      },
      "geometry": {
        "type": "Point",
        "coordinates": [
          -71.35135634470242,
          -6.263931954593264
        ]
      }
    },
    {
      "type": "Feature",
      "properties": {
        "norad_id": 30633,
        "name": "FENGYUN 1C DEB",
        "group": "fengyun-1c-debris",
        "lat": -66.57182936127349,
        "lon": -135.62128882523237,
        "alt_km": 792.0792702998897,
        "timestamp": "2025-12-04T19:33:59.880757+00:00",
        "meta_object_name": "FENGYUN 1C DEB",
        "meta_object_id": "1999-025ANQ",
        "meta_epoch": "2025-12-03T15:06:29.638944",
        "meta_mean_motion": 14.04344802,
        "meta_eccentricity": 0.01310643,
        "meta_inclination": 98.4213,
        "meta_ra_of_asc_node": 203.2878,
        "meta_arg_of_pericenter": 286.0533,
        "meta_mean_anomaly": 134.2298,
        "meta_ephemeris_type": 0,
        "meta_classification_type": "U",
        "meta_norad_cat_id": 30633,
        "meta_element_set_no": 999,
        "meta_rev_at_epoch": 95764,
        "meta_bstar": 0.0013302983,
        "meta_mean_motion_dot": 2.244e-05,
        "meta_mean_motion_ddot": 0,
        "tle_line1": "1 30633U 99025ANQ 25337.62950971  .00002244  00000+0  13303-2 0  9992",
        "tle_line2": "2 30633  98.4213 203.2878 0131064 286.0533 134.2298 14.04344802957646"
      },
      "geometry": {
        "type": "Point",
        "coordinates": [
          -135.62128882523237,
          -66.57182936127349
        ]
      }
    },
    {
      "type": "Feature",
      "properties": {
        "norad_id": 30634,
        "name": "FENGYUN 1C DEB",
        "group": "fengyun-1c-debris",
        "lat": 32.83426816978844,
        "lon": 147.44651144484996,
        "alt_km": 781.2633752815545,
        "timestamp": "2025-12-04T19:33:59.880766+00:00",
        "meta_object_name": "FENGYUN 1C DEB",
        "meta_object_id": "1999-025ANR",
        "meta_epoch": "2025-12-03T22:43:23.509632",
        "meta_mean_motion": 14.09613484,
        "meta_eccentricity": 0.01205435,
        "meta_inclination": 99.2915,
        "meta_ra_of_asc_node": 320.4864,
        "meta_arg_of_pericenter": 121.057,
        "meta_mean_anomaly": 300.1013,
        "meta_ephemeris_type": 0,
        "meta_classification_type": "U",
        "meta_norad_cat_id": 30634,
        "meta_element_set_no": 999,
        "meta_rev_at_epoch": 95493,
        "meta_bstar": 0.0033646477,
        "meta_mean_motion_dot": 6.262e-05,
        "meta_mean_motion_ddot": 0,
        "tle_line1": "1 30634U 99025ANR 25337.94679988  .00006262  00000+0  33646-2 0  9990",
        "tle_line2": "2 30634  99.2915 320.4864 0120543 121.0570 300.1013 14.09613484954939"
      },
      "geometry": {
        "type": "Point",
        "coordinates": [
          147.44651144484996,
          32.83426816978844
        ]
      }
    },
    {
      "type": "Feature",
      "properties": {
        "norad_id": 30639,
        "name": "FENGYUN 1C DEB",
        "group": "fengyun-1c-debris",
        "lat": -67.39508185975255,
        "lon": -111.93769832285659,
        "alt_km": 764.5094187358482,
        "timestamp": "2025-12-04T19:33:59.880775+00:00",
        "meta_object_name": "FENGYUN 1C DEB",
        "meta_object_id": "1999-025ANW",
        "meta_epoch": "2025-12-02T19:27:01.410336",
        "meta_mean_motion": 14.32076352,
        "meta_eccentricity": 0.00665791,
        "meta_inclination": 99.019,
        "meta_ra_of_asc_node": 88.4034,
        "meta_arg_of_pericenter": 310.2612,
        "meta_mean_anomaly": 49.276,
        "meta_ephemeris_type": 0,
        "meta_classification_type": "U",
        "meta_norad_cat_id": 30639,
        "meta_element_set_no": 999,
        "meta_rev_at_epoch": 96577,
        "meta_bstar": 0.0036585332,
        "meta_mean_motion_dot": 0.00010041,
        "meta_mean_motion_ddot": 0,
        "tle_line1": "1 30639U 99025ANW 25336.81043299  .00010041  00000+0  36585-2 0  9995",
        "tle_line2": "2 30639  99.0190  88.4034 0066579 310.2612  49.2760 14.32076352965771"
      },
      "geometry": {
        "type": "Point",
        "coordinates": [
          -111.93769832285659,
          -67.39508185975255
        ]
      }
    }
  ]
}